{
  "type": "FeatureCollection",
  "name": "2nd_floor_corridor",
  "features": [
    {
      "type": "Feature",
      "properties": { "id": 1, "room_name": "Employee sitting places", "Floor": "2nd", "Latitude": 28.670886321205604, "Longitude": 77.13368028251561 },
      "geometry": { "type": "Point", "coordinates": [77.13368028251561, 28.670886321205604] }
    },
    {
      "type": "Feature",
      "properties": { "id": 2, "room_name": "Employee sitting places", "Floor": "2nd", "Latitude": 28.670895309105752, "Longitude": 77.1336739560117 },
      "geometry": { "type": "Point", "coordinates": [77.1336739560117, 28.670895309105752] }
    },
    {
      "type": "Feature",
      "properties": { "id": 3, "room_name": "Employee sitting places", "Floor": "2nd", "Latitude": 28.6709090416865, "Longitude": 77.1336652437447 },
      "geometry": { "type": "Point", "coordinates": [77.1336652437447, 28.6709090416865] }
    },
    {
      "type": "Feature",
      "properties": { "id": 4, "room_name": "Employee sitting places", "Floor": "2nd", "Latitude": 28.670916992228854, "Longitude": 77.13365960266368 },
      "geometry": { "type": "Point", "coordinates": [77.13365960266368, 28.670916992228854] }
    },
    {
      "type": "Feature",
      "properties": { "id": 5, "room_name": "Employee sitting places", "Floor": "2nd", "Latitude": 28.670924515237306, "Longitude": 77.13365565763435 },
      "geometry": { "type": "Point", "coordinates": [77.13365565763435, 28.670924515237306] }
    },
    {
      "type": "Feature",
      "properties": { "id": 6, "room_name": "Employee sitting places", "Floor": "2nd", "Latitude": 28.670932109317192, "Longitude": 77.13365124410326 },
      "geometry": { "type": "Point", "coordinates": [77.13365124410326, 28.670932109317192] }
    },
    {
      "type": "Feature",
      "properties": { "id": 7, "room_name": "Employee sitting places", "Floor": "2nd", "Latitude": 28.670934567587334, "Longitude": 77.133649516382 },
      "geometry": { "type": "Point", "coordinates": [77.133649516382, 28.670934567587334] }
    },
    {
      "type": "Feature",
      "properties": { "id": 8, "room_name": "Employee sitting places", "Floor": "2nd", "Latitude": 28.67094066729354, "Longitude": 77.13365915214976 },
      "geometry": { "type": "Point", "coordinates": [77.13365915214976, 28.67094066729354] }
    },
    {
      "type": "Feature",
      "properties": { "id": 9, "room_name": "Employee sitting places", "Floor": "2nd", "Latitude": 28.670945706181264, "Longitude": 77.13366728509138 },
      "geometry": { "type": "Point", "coordinates": [77.13366728509138, 28.670945706181264] }
    },
    {
      "type": "Feature",
      "properties": { "id": 10, "room_name": "Employee sitting places", "Floor": "2nd", "Latitude": 28.67095065666746, "Longitude": 77.13367497602529 },
      "geometry": { "type": "Point", "coordinates": [77.13367497602529, 28.67095065666746] }
    },
    {
      "type": "Feature",
      "properties": { "id": 11, "room_name": "Employee sitting places", "Floor": "2nd", "Latitude": 28.670955783956735, "Longitude": 77.13368195974688 },
      "geometry": { "type": "Point", "coordinates": [77.13368195974688, 28.670955783956735] }
    },
    {
      "type": "Feature",
      "properties": { "id": 12, "room_name": "Employee sitting places", "Floor": "2nd", "Latitude": 28.67096396109911, "Longitude": 77.13369499897394 },
      "geometry": { "type": "Point", "coordinates": [77.13369499897394, 28.67096396109911] }
    },
    {
      "type": "Feature",
      "properties": { "id": 13, "room_name": "Employee sitting places", "Floor": "2nd", "Latitude": 28.670960148297805, "Longitude": 77.13369821782014 },
      "geometry": { "type": "Point", "coordinates": [77.13369821782014, 28.670960148297805] }
    },
    {
      "type": "Feature",
      "properties": { "id": 14, "room_name": "Employee sitting places", "Floor": "2nd", "Latitude": 28.670952717324177, "Longitude": 77.13370345760923 },
      "geometry": { "type": "Point", "coordinates": [77.13370345760923, 28.670952717324177] }
    },
    {
      "type": "Feature",
      "properties": { "id": 15, "room_name": "Employee sitting places", "Floor": "2nd", "Latitude": 28.67096858329367, "Longitude": 77.133691411202 },
      "geometry": { "type": "Point", "coordinates": [77.133691411202, 28.67096858329367] }
    },
    {
      "type": "Feature",
      "properties": { "id": 16, "room_name": "Employee sitting places", "Floor": "2nd", "Latitude": 28.67098020039572, "Longitude": 77.13368379115549 },
      "geometry": { "type": "Point", "coordinates": [77.13368379115549, 28.67098020039572] }
    },
    {
      "type": "Feature",
      "properties": { "id": 17, "room_name": "Employee sitting places", "Floor": "2nd", "Latitude": 28.67098470468288, "Longitude": 77.13368079113602 },
      "geometry": { "type": "Point", "coordinates": [77.13368079113602, 28.67098470468288] }
    },
    {
      "type": "Feature",
      "properties": { "id": 18, "room_name": "Employee sitting places", "Floor": "2nd", "Latitude": 28.670986122721004, "Longitude": 77.13368327939159 },
      "geometry": { "type": "Point", "coordinates": [77.13368327939159, 28.670986122721004] }
    },
    {
      "type": "Feature",
      "properties": { "id": 19, "room_name": "Employee sitting places", "Floor": "2nd", "Latitude": 28.67099173702634, "Longitude": 77.13367499510501 },
      "geometry": { "type": "Point", "coordinates": [77.13367499510501, 28.67099173702634] }
    },
    {
      "type": "Feature",
      "properties": { "id": 20, "room_name": "Employee sitting places", "Floor": "2nd", "Latitude": 28.670998257608062, "Longitude": 77.13366999599236 },
      "geometry": { "type": "Point", "coordinates": [77.13366999599236, 28.670998257608062] }
    },
    {
      "type": "Feature",
      "properties": { "id": 21, "room_name": "Employee sitting places", "Floor": "2nd", "Latitude": 28.67094902034114, "Longitude": 77.13365256979931 },
      "geometry": { "type": "Point", "coordinates": [77.13365256979931, 28.67094902034114] }
    },
    {
      "type": "Feature",
      "properties": { "id": 22, "room_name": "Employee sitting places", "Floor": "2nd", "Latitude": 28.670955106217413, "Longitude": 77.13364822274482 },
      "geometry": { "type": "Point", "coordinates": [77.13364822274482, 28.670955106217413] }
    },
    {
      "type": "Feature",
      "properties": { "id": 23, "room_name": "Employee sitting places", "Floor": "2nd", "Latitude": 28.670960757388233, "Longitude": 77.13364387569035 },
      "geometry": { "type": "Point", "coordinates": [77.13364387569035, 28.670960757388233] }
    },
    {
      "type": "Feature",
      "properties": { "id": 24, "room_name": "Employee sitting places", "Floor": "2nd", "Latitude": 28.67092729333866, "Longitude": 77.13365378586973 },
      "geometry": { "type": "Point", "coordinates": [77.13365378586973, 28.67092729333866] }
    },
    {
      "type": "Feature",
      "properties": { "id": 25, "room_name": "Employee sitting places", "Floor": "2nd", "Latitude": 28.67092635919236, "Longitude": 77.13365859742223 },
      "geometry": { "type": "Point", "coordinates": [77.13365859742223, 28.67092635919236] }
    },
    {
      "type": "Feature",
      "properties": { "id": 26, "room_name": "Employee sitting places", "Floor": "2nd", "Latitude": 28.670927589942433, "Longitude": 77.13366084487888 },
      "geometry": { "type": "Point", "coordinates": [77.13366084487888, 28.670927589942433] }
    },
    {
      "type": "Feature",
      "properties": { "id": 27, "room_name": "Employee sitting places", "Floor": "2nd", "Latitude": 28.670966846022406, "Longitude": 77.13363976592306 },
      "geometry": { "type": "Point", "coordinates": [77.13363976592306, 28.670966846022406] }
    },
    {
      "type": "Feature",
      "properties": { "id": 28, "room_name": "Employee sitting places", "Floor": "2nd", "Latitude": 28.670973116529446, "Longitude": 77.13363616628786 },
      "geometry": { "type": "Point", "coordinates": [77.13363616628786, 28.670973116529446] }
    },
    {
      "type": "Feature",
      "properties": { "id": 29, "room_name": "Employee sitting places", "Floor": "2nd", "Latitude": 28.670971072913275, "Longitude": 77.13363209677472 },
      "geometry": { "type": "Point", "coordinates": [77.13363209677472, 28.670971072913275] }
    },
    {
      "type": "Feature",
      "properties": { "id": 30, "room_name": "Employee sitting places", "Floor": "2nd", "Latitude": 28.670976660202157, "Longitude": 77.13364322943832 },
      "geometry": { "type": "Point", "coordinates": [77.13364322943832, 28.670976660202157] }
    },
    {
      "type": "Feature",
      "properties": { "id": 31, "room_name": "Employee sitting places", "Floor": "2nd", "Latitude": 28.67098051572965, "Longitude": 77.13365093359299 },
      "geometry": { "type": "Point", "coordinates": [77.13365093359299, 28.67098051572965] }
    },
    {
      "type": "Feature",
      "properties": { "id": 32, "room_name": "Employee sitting places", "Floor": "2nd", "Latitude": 28.670984534282898, "Longitude": 77.1336590971831 },
      "geometry": { "type": "Point", "coordinates": [77.1336590971831, 28.670984534282898] }
    },
    {
      "type": "Feature",
      "properties": { "id": 33, "room_name": "Employee sitting places", "Floor": "2nd", "Latitude": 28.670989311135965, "Longitude": 77.13366734299728 },
      "geometry": { "type": "Point", "coordinates": [77.13366734299728, 28.670989311135965] }
    },
    {
      "type": "Feature",
      "properties": { "id": 34, "room_name": "Employee sitting places", "Floor": "2nd", "Latitude": 28.671008478219846, "Longitude": 77.13366260003575 },
      "geometry": { "type": "Point", "coordinates": [77.13366260003575, 28.671008478219846] }
    },
    {
      "type": "Feature",
      "properties": { "id": 35, "room_name": "Employee sitting places", "Floor": "2nd", "Latitude": 28.67100047738747, "Longitude": 77.13364833301218 },
      "geometry": { "type": "Point", "coordinates": [77.13364833301218, 28.67100047738747] }
    },
    {
      "type": "Feature",
      "properties": { "id": 36, "room_name": "Employee sitting places", "Floor": "2nd", "Latitude": 28.670995188287108, "Longitude": 77.13363864320179 },
      "geometry": { "type": "Point", "coordinates": [77.13363864320179, 28.670995188287108] }
    },
    {
      "type": "Feature",
      "properties": { "id": 37, "room_name": "Employee sitting places", "Floor": "2nd", "Latitude": 28.67098718801664, "Longitude": 77.1336254317628 },
      "geometry": { "type": "Point", "coordinates": [77.1336254317628, 28.67098718801664] }
    },
    {
      "type": "Feature",
      "properties": { "id": 38, "room_name": "Employee sitting places", "Floor": "2nd", "Latitude": 28.67097769784398, "Longitude": 77.13362625969431 },
      "geometry": { "type": "Point", "coordinates": [77.13362625969431, 28.67097769784398] }
    },
    {
      "type": "Feature",
      "properties": { "id": 39, "room_name": "Employee sitting places", "Floor": "2nd", "Latitude": 28.670983938859436, "Longitude": 77.13362235266894 },
      "geometry": { "type": "Point", "coordinates": [77.13362235266894, 28.670983938859436] }
    },
    {
      "type": "Feature",
      "properties": { "id": 40, "room_name": "Employee sitting places", "Floor": "2nd", "Latitude": 28.67093878127654, "Longitude": 77.13364681122563 },
      "geometry": { "type": "Point", "coordinates": [77.13364681122563, 28.67093878127654] }
    },
    {
      "type": "Feature",
      "properties": { "id": 41, "room_name": "Employee sitting places", "Floor": "2nd", "Latitude": 28.67094146201915, "Longitude": 77.13364493065271 },
      "geometry": { "type": "Point", "coordinates": [77.13364493065271, 28.67094146201915] }
    },
    {
      "type": "Feature",
      "properties": { "id": 42, "room_name": "Employee sitting places", "Floor": "2nd", "Latitude": 28.67093796734983, "Longitude": 77.13363960049354 },
      "geometry": { "type": "Point", "coordinates": [77.13363960049354, 28.67093796734983] }
    },
    {
      "type": "Feature",
      "properties": { "id": 43, "room_name": "Employee sitting places", "Floor": "2nd", "Latitude": 28.670909657390613, "Longitude": 77.1337064691866 },
      "geometry": { "type": "Point", "coordinates": [77.1337064691866, 28.670909657390613] }
    },
    {
      "type": "Feature",
      "properties": { "id": 44, "room_name": "Employee sitting places", "Floor": "2nd", "Latitude": 28.670905231698796, "Longitude": 77.13370662006189 },
      "geometry": { "type": "Point", "coordinates": [77.13370662006189, 28.670905231698796] }
    },
    {
      "type": "Feature",
      "properties": { "id": 45, "room_name": "Employee sitting places", "Floor": "2nd", "Latitude": 28.670903812832066, "Longitude": 77.13370244484695 },
      "geometry": { "type": "Point", "coordinates": [77.13370244484695, 28.670903812832066] }
    },
    {
      "type": "Feature",
      "properties": { "id": 46, "room_name": "Employee sitting places", "Floor": "2nd", "Latitude": 28.67090042697177, "Longitude": 77.13369787835724 },
      "geometry": { "type": "Point", "coordinates": [77.13369787835724, 28.67090042697177] }
    },
    {
      "type": "Feature",
      "properties": { "id": 47, "room_name": "Employee sitting places", "Floor": "2nd", "Latitude": 28.670896180130146, "Longitude": 77.13368805393013 },
      "geometry": { "type": "Point", "coordinates": [77.13368805393013, 28.670896180130146] }
    },
    {
      "type": "Feature",
      "properties": { "id": 48, "room_name": "Employee sitting places", "Floor": "2nd", "Latitude": 28.670894875731452, "Longitude": 77.13368111151162 },
      "geometry": { "type": "Point", "coordinates": [77.13368111151162, 28.670894875731452] }
    },
    {
      "type": "Feature",
      "properties": { "id": 49, "room_name": "Employee sitting places", "Floor": "2nd", "Latitude": 28.670895409611, "Longitude": 77.1336756448016 },
      "geometry": { "type": "Point", "coordinates": [77.1336756448016, 28.670895409611] }
    },
    {
      "type": "Feature",
      "properties": { "id": 50, "room_name": "Employee sitting places", "Floor": "2nd", "Latitude": 28.670900638339674, "Longitude": 77.133671287434 },
      "geometry": { "type": "Point", "coordinates": [77.133671287434, 28.670900638339674] }
    },
    {
      "type": "Feature",
      "properties": { "id": 51, "room_name": "Employee sitting places", "Floor": "2nd", "Latitude": 28.670908483588768, "Longitude": 77.13366607562195 },
      "geometry": { "type": "Point", "coordinates": [77.13366607562195, 28.670908483588768] }
    },
    {
      "type": "Feature",
      "properties": { "id": 52, "room_name": "Employee sitting places", "Floor": "2nd", "Latitude": 28.67092005344984, "Longitude": 77.1336587559408 },
      "geometry": { "type": "Point", "coordinates": [77.1336587559408, 28.67092005344984] }
    },
    {
      "type": "Feature",
      "properties": { "id": 53, "room_name": "Employee sitting places", "Floor": "2nd", "Latitude": 28.670933215594538, "Longitude": 77.13365032829712 },
      "geometry": { "type": "Point", "coordinates": [77.13365032829712, 28.670933215594538] }
    },
    {
      "type": "Feature",
      "properties": { "id": 54, "room_name": "Employee sitting places", "Floor": "2nd", "Latitude": 28.67093854077062, "Longitude": 77.13364913846674 },
      "geometry": { "type": "Point", "coordinates": [77.13364913846674, 28.67093854077062] }
    },
    {
      "type": "Feature",
      "properties": { "id": 55, "room_name": "Employee sitting places", "Floor": "2nd", "Latitude": 28.670943209043443, "Longitude": 77.13366015887024 },
      "geometry": { "type": "Point", "coordinates": [77.13366015887024, 28.670943209043443] }
    },
    {
      "type": "Feature",
      "properties": { "id": 56, "room_name": "Employee sitting places", "Floor": "2nd", "Latitude": 28.670949342905978, "Longitude": 77.13367318291735 },
      "geometry": { "type": "Point", "coordinates": [77.13367318291735, 28.670949342905978] }
    },
    {
      "type": "Feature",
      "properties": { "id": 57, "room_name": "Employee sitting places", "Floor": "2nd", "Latitude": 28.670957325302684, "Longitude": 77.13368607508825 },
      "geometry": { "type": "Point", "coordinates": [77.13368607508825, 28.670957325302684] }
    },
    {
      "type": "Feature",
      "properties": { "id": 58, "room_name": "Employee sitting places", "Floor": "2nd", "Latitude": 28.67094747755688, "Longitude": 77.1336444468084 },
      "geometry": { "type": "Point", "coordinates": [77.1336444468084, 28.67094747755688] }
    },
    {
      "type": "Feature",
      "properties": { "id": 59, "room_name": "Employee sitting places", "Floor": "2nd", "Latitude": 28.670957238528196, "Longitude": 77.13364250604712 },
      "geometry": { "type": "Point", "coordinates": [77.13364250604712, 28.670957238528196] }
    },
    {
      "type": "Feature",
      "properties": { "id": 60, "room_name": "Employee sitting places", "Floor": "2nd", "Latitude": 28.67096787717408, "Longitude": 77.13364103990223 },
      "geometry": { "type": "Point", "coordinates": [77.13364103990223, 28.67096787717408] }
    },
    {
      "type": "Feature",
      "properties": { "id": 61, "room_name": "Employee sitting places", "Floor": "2nd", "Latitude": 28.67096352666335, "Longitude": 77.13363634280485 },
      "geometry": { "type": "Point", "coordinates": [77.13363634280485, 28.67096352666335] }
    },
    {
      "type": "Feature",
      "properties": { "id": 62, "room_name": "Employee sitting places", "Floor": "2nd", "Latitude": 28.670989281846374, "Longitude": 77.13362139646455 },
      "geometry": { "type": "Point", "coordinates": [77.13362139646455, 28.670989281846374] }
    },
    {
      "type": "Feature",
      "properties": { "id": 63, "room_name": "Employee sitting places", "Floor": "2nd", "Latitude": 28.67098322871637, "Longitude": 77.13362386938684 },
      "geometry": { "type": "Point", "coordinates": [77.13362386938684, 28.67098322871637] }
    },
    {
      "type": "Feature",
      "properties": { "id": 64, "room_name": "Employee sitting places", "Floor": "2nd", "Latitude": 28.670978770749965, "Longitude": 77.13362790988708 },
      "geometry": { "type": "Point", "coordinates": [77.13362790988708, 28.670978770749965] }
    },
    {
      "type": "Feature",
      "properties": { "id": 65, "room_name": "Employee sitting places", "Floor": "2nd", "Latitude": 28.670974757926473, "Longitude": 77.13363119769302 },
      "geometry": { "type": "Point", "coordinates": [77.13363119769302, 28.670974757926473] }
    },
    {
      "type": "Feature",
      "properties": { "id": 66, "room_name": "Employee sitting places", "Floor": "2nd", "Latitude": 28.6709717568705, "Longitude": 77.13363379399242 },
      "geometry": { "type": "Point", "coordinates": [77.13363379399242, 28.6709717568705] }
    },
    {
      "type": "Feature",
      "properties": { "id": 67, "room_name": "Employee sitting places", "Floor": "2nd", "Latitude": 28.670968659515108, "Longitude": 77.1336346384827 },
      "geometry": { "type": "Point", "coordinates": [77.1336346384827, 28.670968659515108] }
    },
    {
      "type": "Feature",
      "properties": { "id": 68, "room_name": "Employee sitting places", "Floor": "2nd", "Latitude": 28.67096705015225, "Longitude": 77.13363566450212 },
      "geometry": { "type": "Point", "coordinates": [77.13363566450212, 28.67096705015225] }
    },
    {
      "type": "Feature",
      "properties": { "id": 69, "room_name": "Employee sitting places", "Floor": "2nd", "Latitude": 28.670961448557946, "Longitude": 77.13369160530175 },
      "geometry": { "type": "Point", "coordinates": [77.13369160530175, 28.670961448557946] }
    },
    {
      "type": "Feature",
      "properties": { "id": 70, "room_name": "Employee sitting places", "Floor": "2nd", "Latitude": 28.67096863140811, "Longitude": 77.13369030374334 },
      "geometry": { "type": "Point", "coordinates": [77.13369030374334, 28.67096863140811] }
    },
    {
      "type": "Feature",
      "properties": { "id": 71, "room_name": "Employee sitting places", "Floor": "2nd", "Latitude": 28.670976519303483, "Longitude": 77.13368527404117 },
      "geometry": { "type": "Point", "coordinates": [77.13368527404117, 28.670976519303483] }
    },
    {
      "type": "Feature",
      "properties": { "id": 72, "room_name": "Employee sitting places", "Floor": "2nd", "Latitude": 28.67098377230309, "Longitude": 77.13368065398579 },
      "geometry": { "type": "Point", "coordinates": [77.13368065398579, 28.67098377230309] }
    },
    {
      "type": "Feature",
      "properties": { "id": 73, "room_name": "Employee sitting places", "Floor": "2nd", "Latitude": 28.670992027317862, "Longitude": 77.13367675597661 },
      "geometry": { "type": "Point", "coordinates": [77.13367675597661, 28.670992027317862] }
    },
    {
      "type": "Feature",
      "properties": { "id": 74, "room_name": "Employee sitting places", "Floor": "2nd", "Latitude": 28.6709882921102, "Longitude": 77.13367769963737 },
      "geometry": { "type": "Point", "coordinates": [77.13367769963737, 28.6709882921102] }
    },
    {
      "type": "Feature",
      "properties": { "id": 75, "room_name": "Employee sitting places", "Floor": "2nd", "Latitude": 28.671001336031328, "Longitude": 77.13367153424497 },
      "geometry": { "type": "Point", "coordinates": [77.13367153424497, 28.671001336031328] }
    },
    {
      "type": "Feature",
      "properties": { "id": 76, "room_name": "Employee sitting places", "Floor": "2nd", "Latitude": 28.67101010750792, "Longitude": 77.13366406521655 },
      "geometry": { "type": "Point", "coordinates": [77.13366406521655, 28.67101010750792] }
    },
    {
      "type": "Feature",
      "properties": { "id": 77, "room_name": "Employee sitting places", "Floor": "2nd", "Latitude": 28.670958993760163, "Longitude": 77.13369649096774 },
      "geometry": { "type": "Point", "coordinates": [77.13369649096774, 28.670958993760163] }
    },
    {
      "type": "Feature",
      "properties": { "id": 78, "room_name": "Employee sitting places", "Floor": "2nd", "Latitude": 28.670951141823885, "Longitude": 77.13370478222718 },
      "geometry": { "type": "Point", "coordinates": [77.13370478222718, 28.670951141823885] }
    }
  ]
}
