{
  "type": "FeatureCollection",
  "features": [
    {
      "type": "Feature",
      "properties": { "type": "main" },
      "geometry": {
        "type": "LineString",
        "coordinates": [
          [77.1337015566809,  28.670925505440955, 9.013555571937994],
          [77.1337168863309,  28.67091164028271,  7.762241214348218],
          [77.13368586268267, 28.67089637708329,  9.0089558916471],
          [77.13364046557564, 28.670949666129225, 7.241761470341059],
          [77.13365423425256, 28.670962501360055, 7.3417242408063395],
          [77.13366460772706, 28.670968168138835, 9.008688731014702],
          [77.13368334341531, 28.670982618319854, 7.534440911180029],
          [77.13370893107256, 28.670959502003,    6.543050708592208],
          [77.1337272781176,  28.670973982465267, 7.689418987400068],
          [77.133690879625,   28.6710136484002,   9.012841445763977]
        ]
      }
    },
    {
      "type": "Feature",
      "properties": { "type": "branch" },
      "geometry": {
        "type": "LineString",
        "coordinates": [
          [77.13366383560015, 28.670967464185814, 9.09605221409541],
          [77.13368148313997, 28.670946088675567, 9.012390301756984]
        ]
      }
    },
    {
      "type": "Feature",
      "properties": { "type": "branch" },
      "geometry": {
        "type": "LineString",
        "coordinates": [
          [77.13368113003843, 28.670981540639257, 7.965816024881887],
          [77.1336503053284,  28.671011298929304, 7.485615146809673],
          [77.13363600451218, 28.670997102400637, 9.009050693938853],
          [77.13364902968033, 28.670979214460694, 7.377243325346665]
        ]
      }
    }
  ]
}
