{
"type": "FeatureCollection",
"name": "cctv_cameras",
"description": "Reference export of every CCTV camera's position and per-camera rotation/height limits, generated from the CameraConfig entries in src/models.ts (configs2ndFloor / configs3rdFloor) and named per src/config.ts (FLOOR_CAMERAS). Null limit fields mean that camera has no configured bound on that axis (unconstrained). This file is a static reference snapshot, not read by the app at runtime — edit src/models.ts to actually change camera behavior.",
"crs": { "type": "name", "properties": { "name": "urn:ogc:def:crs:OGC:1.3:CRS84" } },
"features": [
{ "type": "Feature", "properties": { "name": "Stairs Cam", "floor": 3, "floorLabel": "2nd Floor", "defaultHeadingDeg": 293.36, "defaultPitchDeg": -45.22, "fovDeg": 55, "maxLeftHeadingDeg": 277, "maxRightHeadingDeg": 314, "maxDownPitchDeg": -78, "maxUpPitchDeg": -29, "sitDownHeightM": null, "standUpHeightM": null }, "geometry": { "type": "Point", "coordinates": [77.133730, 28.670906, 9.03] } },
{ "type": "Feature", "properties": { "name": "Room 1 Cam", "floor": 3, "floorLabel": "2nd Floor", "defaultHeadingDeg": 18.5, "defaultPitchDeg": -53.75, "fovDeg": 55, "maxLeftHeadingDeg": 353, "maxRightHeadingDeg": 28, "maxDownPitchDeg": -70, "maxUpPitchDeg": -42, "sitDownHeightM": null, "standUpHeightM": null, "headingWrapsThroughNorth": true }, "geometry": { "type": "Point", "coordinates": [77.133660, 28.670871, 9.36] } },
{ "type": "Feature", "properties": { "name": "Employee area 1", "floor": 3, "floorLabel": "2nd Floor", "defaultHeadingDeg": 73.13, "defaultPitchDeg": -85, "fovDeg": 90, "maxLeftHeadingDeg": 60, "maxRightHeadingDeg": 99, "maxDownPitchDeg": null, "maxUpPitchDeg": -71, "sitDownHeightM": null, "standUpHeightM": null }, "geometry": { "type": "Point", "coordinates": [77.133629, 28.670932, 8.93] } },
{ "type": "Feature", "properties": { "name": "Pantry Cam", "floor": 3, "floorLabel": "2nd Floor", "defaultHeadingDeg": 7, "defaultPitchDeg": -61, "fovDeg": 90, "maxLeftHeadingDeg": 349, "maxRightHeadingDeg": 29, "maxDownPitchDeg": null, "maxUpPitchDeg": -40, "sitDownHeightM": null, "standUpHeightM": null, "headingWrapsThroughNorth": true }, "geometry": { "type": "Point", "coordinates": [77.133595, 28.670980, 8.00] } },
{ "type": "Feature", "properties": { "name": "Corridor Cam 2", "floor": 3, "floorLabel": "2nd Floor", "defaultHeadingDeg": 179.47, "defaultPitchDeg": -51.29, "fovDeg": 90, "maxLeftHeadingDeg": 175, "maxRightHeadingDeg": 184, "maxDownPitchDeg": -60, "maxUpPitchDeg": -44, "sitDownHeightM": null, "standUpHeightM": null }, "geometry": { "type": "Point", "coordinates": [77.133654, 28.671009, 9.40] } },
{ "type": "Feature", "properties": { "name": "Corridor Cam 1", "floor": 3, "floorLabel": "2nd Floor", "defaultHeadingDeg": 2.29, "defaultPitchDeg": -33.10, "fovDeg": 55, "maxLeftHeadingDeg": null, "maxRightHeadingDeg": 15, "maxDownPitchDeg": -39, "maxUpPitchDeg": -23, "sitDownHeightM": null, "standUpHeightM": null }, "geometry": { "type": "Point", "coordinates": [77.133730, 28.670906, 8.50] } },

{ "type": "Feature", "properties": { "name": "Employee Area Cam 1", "floor": 4, "floorLabel": "3rd Floor", "defaultHeadingDeg": 107, "defaultPitchDeg": -33, "fovDeg": 120, "maxLeftHeadingDeg": 90, "maxRightHeadingDeg": 171, "maxDownPitchDeg": -60, "maxUpPitchDeg": -10, "sitDownHeightM": null, "standUpHeightM": null }, "geometry": { "type": "Point", "coordinates": [77.133613, 28.670938, 10.81] } },
{ "type": "Feature", "properties": { "name": "Library Cam", "floor": 4, "floorLabel": "3rd Floor", "defaultHeadingDeg": 8, "defaultPitchDeg": -32, "fovDeg": 85, "maxLeftHeadingDeg": 318, "maxRightHeadingDeg": 3, "maxDownPitchDeg": -85, "maxUpPitchDeg": -22, "sitDownHeightM": null, "standUpHeightM": null, "headingWrapsThroughNorth": true }, "geometry": { "type": "Point", "coordinates": [77.133668, 28.670870, 10.81] } },
{ "type": "Feature", "properties": { "name": "Employee Area Cam 2", "floor": 4, "floorLabel": "3rd Floor", "defaultHeadingDeg": 90, "defaultPitchDeg": -20, "fovDeg": 140, "maxLeftHeadingDeg": null, "maxRightHeadingDeg": null, "maxDownPitchDeg": null, "maxUpPitchDeg": null, "sitDownHeightM": null, "standUpHeightM": null }, "geometry": { "type": "Point", "coordinates": [77.13370575798822, 28.67090204621658, 12.51] } },
{ "type": "Feature", "properties": { "name": "3rd Floor Employee Area Cam 2", "floor": 4, "floorLabel": "3rd Floor", "defaultHeadingDeg": 289, "defaultPitchDeg": -30, "fovDeg": 90, "maxLeftHeadingDeg": 272, "maxRightHeadingDeg": 290, "maxDownPitchDeg": -60, "maxUpPitchDeg": -28, "sitDownHeightM": null, "standUpHeightM": null }, "geometry": { "type": "Point", "coordinates": [77.133725, 28.670971, 12.01] } },
{ "type": "Feature", "properties": { "name": "3rd Floor Pantry Cam", "floor": 4, "floorLabel": "3rd Floor", "defaultHeadingDeg": 180, "defaultPitchDeg": -36, "fovDeg": 120, "maxLeftHeadingDeg": 165, "maxRightHeadingDeg": 205, "maxDownPitchDeg": -60, "maxUpPitchDeg": -20, "sitDownHeightM": null, "standUpHeightM": null }, "geometry": { "type": "Point", "coordinates": [77.133740, 28.670960, 10.81] } },
{ "type": "Feature", "properties": { "name": "3rd Floor Stair Cam", "floor": 4, "floorLabel": "3rd Floor", "defaultHeadingDeg": 348, "defaultPitchDeg": -40, "fovDeg": 120, "maxLeftHeadingDeg": 331, "maxRightHeadingDeg": 348, "maxDownPitchDeg": -60, "maxUpPitchDeg": -10, "sitDownHeightM": null, "standUpHeightM": null }, "geometry": { "type": "Point", "coordinates": [77.133700, 28.670897, 11.01] } },
{ "type": "Feature", "properties": { "name": "Meeting Room Cam", "floor": 4, "floorLabel": "3rd Floor", "defaultHeadingDeg": 200, "defaultPitchDeg": -37, "fovDeg": 110, "maxLeftHeadingDeg": 150, "maxRightHeadingDeg": 250, "maxDownPitchDeg": -60, "maxUpPitchDeg": -37, "sitDownHeightM": null, "standUpHeightM": null }, "geometry": { "type": "Point", "coordinates": [77.133682, 28.671034, 11.31] } },
{ "type": "Feature", "properties": { "name": "Conference Room Cam", "floor": 4, "floorLabel": "3rd Floor", "defaultHeadingDeg": 83, "defaultPitchDeg": -54, "fovDeg": 110, "maxLeftHeadingDeg": 60, "maxRightHeadingDeg": 150, "maxDownPitchDeg": -60, "maxUpPitchDeg": -35, "sitDownHeightM": null, "standUpHeightM": null }, "geometry": { "type": "Point", "coordinates": [77.133595, 28.670980, 11.21] } },
{ "type": "Feature", "properties": { "name": "3rd Floor Employee Area Cam 3", "floor": 4, "floorLabel": "3rd Floor", "defaultHeadingDeg": 61, "defaultPitchDeg": -56, "fovDeg": 110, "maxLeftHeadingDeg": 45, "maxRightHeadingDeg": 73, "maxDownPitchDeg": -85, "maxUpPitchDeg": -45, "sitDownHeightM": null, "standUpHeightM": null }, "geometry": { "type": "Point", "coordinates": [77.133663, 28.670975, 11.55] } }
]
}
