{
"type": "FeatureCollection",
"name": "2nd_floor_corridor",
"crs": { "type": "name", "properties": { "name": "urn:ogc:def:crs:OGC:1.3:CRS84" } },
"features": [
{ "type": "Feature", "properties": { "id": 2, "room_name": "Employee sitting places", "Floor": "2nd", "Latitude": 28.670887168275009, "Longitude": 77.133681694966754 }, "geometry": { "type": "Point", "coordinates": [ 77.133680282515613, 28.670886321205604 ] } },
{ "type": "Feature", "properties": { "id": 3, "room_name": "Employee sitting places", "Floor": "2nd", "Latitude": 28.670896156175157, "Longitude": 77.133675368462846 }, "geometry": { "type": "Point", "coordinates": [ 77.133673956011705, 28.670895309105752 ] } },
{ "type": "Feature", "properties": { "id": 5, "room_name": "Employee sitting places", "Floor": "2nd", "Latitude": 28.670909888755904, "Longitude": 77.133666656195842 }, "geometry": { "type": "Point", "coordinates": [ 77.133665243744701, 28.6709090416865 ] } },
{ "type": "Feature", "properties": { "id": 6, "room_name": "Employee sitting places", "Floor": "2nd", "Latitude": 28.670917839298259, "Longitude": 77.133661015114825 }, "geometry": { "type": "Point", "coordinates": [ 77.133659602663684, 28.670916992228854 ] } },
{ "type": "Feature", "properties": { "id": 7, "room_name": "Employee sitting places", "Floor": "2nd", "Latitude": 28.670925362306711, "Longitude": 77.133657070085491 }, "geometry": { "type": "Point", "coordinates": [ 77.13365565763435, 28.670924515237306 ] } },
{ "type": "Feature", "properties": { "id": 8, "room_name": "Employee sitting places", "Floor": "2nd", "Latitude": 28.670932956386597, "Longitude": 77.133652656554403 }, "geometry": { "type": "Point", "coordinates": [ 77.133651244103262, 28.670932109317192 ] } },
{ "type": "Feature", "properties": { "id": 9, "room_name": "Employee sitting places", "Floor": "2nd", "Latitude": 28.670936270400993, "Longitude": 77.133650572711289 }, "geometry": { "type": "Point", "coordinates": [ 77.133649516381993, 28.670934567587334 ] } },
{ "type": "Feature", "properties": { "id": 10, "room_name": "Employee sitting places", "Floor": "2nd", "Latitude": 28.670941719201149, "Longitude": 77.133658613970766 }, "geometry": { "type": "Point", "coordinates": [ 77.133659152149761, 28.670940667293539 ] } },
{ "type": "Feature", "properties": { "id": 11, "room_name": "Employee sitting places", "Floor": "2nd", "Latitude": 28.670947284331906, "Longitude": 77.133666319536431 }, "geometry": { "type": "Point", "coordinates": [ 77.133667285091377, 28.670945706181264 ] } },
{ "type": "Feature", "properties": { "id": 12, "room_name": "Employee sitting places", "Floor": "2nd", "Latitude": 28.670952421375681, "Longitude": 77.133674025102096 }, "geometry": { "type": "Point", "coordinates": [ 77.13367497602529, 28.670950656667461 ] } },
{ "type": "Feature", "properties": { "id": 14, "room_name": "Employee sitting places", "Floor": "2nd", "Latitude": 28.670957819214461, "Longitude": 77.133680490370494 }, "geometry": { "type": "Point", "coordinates": [ 77.13368195974688, 28.670955783956735 ] } },
{ "type": "Feature", "properties": { "id": 15, "room_name": "Employee sitting places", "Floor": "2nd", "Latitude": 28.67096530068806, "Longitude": 77.13369376817316 }, "geometry": { "type": "Point", "coordinates": [ 77.133694998973937, 28.670963961099108 ] } },
{ "type": "Feature", "properties": { "id": 16, "room_name": "Employee sitting places", "Floor": "2nd", "Latitude": 28.670960290388042, "Longitude": 77.133698220312951 }, "geometry": { "type": "Point", "coordinates": [ 77.13369821782014, 28.670960148297805 ] } },
{ "type": "Feature", "properties": { "id": 17, "room_name": "Employee sitting places", "Floor": "2nd", "Latitude": 28.670952859414413, "Longitude": 77.133703460102041 }, "geometry": { "type": "Point", "coordinates": [ 77.133703457609229, 28.670952717324177 ] } },
{ "type": "Feature", "properties": { "id": 19, "room_name": "Employee sitting places", "Floor": "2nd", "Latitude": 28.670968725383908, "Longitude": 77.133691413694805 }, "geometry": { "type": "Point", "coordinates": [ 77.133691411201994, 28.670968583293671 ] } },
{ "type": "Feature", "properties": { "id": 21, "room_name": "Employee sitting places", "Floor": "2nd", "Latitude": 28.670980342485958, "Longitude": 77.133683793648302 }, "geometry": { "type": "Point", "coordinates": [ 77.133683791155491, 28.670980200395721 ] } },
{ "type": "Feature", "properties": { "id": 22, "room_name": "Employee sitting places", "Floor": "2nd", "Latitude": 28.670984846773116, "Longitude": 77.133680793628827 }, "geometry": { "type": "Point", "coordinates": [ 77.133680791136015, 28.67098470468288 ] } },
{ "type": "Feature", "properties": { "id": 23, "room_name": "Employee sitting places", "Floor": "2nd", "Latitude": 28.670986264811241, "Longitude": 77.133683281884402 }, "geometry": { "type": "Point", "coordinates": [ 77.13368327939159, 28.670986122721004 ] } },
{ "type": "Feature", "properties": { "id": 24, "room_name": "Employee sitting places", "Floor": "2nd", "Latitude": 28.670991879116578, "Longitude": 77.133674997597822 }, "geometry": { "type": "Point", "coordinates": [ 77.133674995105011, 28.670991737026341 ] } },
{ "type": "Feature", "properties": { "id": 25, "room_name": "Employee sitting places", "Floor": "2nd", "Latitude": 28.670998399698298, "Longitude": 77.133669998485175 }, "geometry": { "type": "Point", "coordinates": [ 77.133669995992364, 28.670998257608062 ] } },
{ "type": "Feature", "properties": { "id": 26, "room_name": "Employee sitting places", "Floor": "2nd", "Latitude": 28.670949162431377, "Longitude": 77.133652572292121 }, "geometry": { "type": "Point", "coordinates": [ 77.13365256979931, 28.670949020341141 ] } },
{ "type": "Feature", "properties": { "id": 27, "room_name": "Employee sitting places", "Floor": "2nd", "Latitude": 28.670955248307649, "Longitude": 77.133648225237636 }, "geometry": { "type": "Point", "coordinates": [ 77.133648222744824, 28.670955106217413 ] } },
{ "type": "Feature", "properties": { "id": 28, "room_name": "Employee sitting places", "Floor": "2nd", "Latitude": 28.670960899478469, "Longitude": 77.133643878183165 }, "geometry": { "type": "Point", "coordinates": [ 77.133643875690353, 28.670960757388233 ] } },
{ "type": "Feature", "properties": { "id": 24, "room_name": "Employee sitting places", "Floor": "2nd", "Latitude": 28.670928140408066, "Longitude": 77.133655198320866 }, "geometry": { "type": "Point", "coordinates": [ 77.133653785869726, 28.670927293338661 ] } },
{ "type": "Feature", "properties": { "id": 25, "room_name": "Employee sitting places", "Floor": "2nd", "Latitude": 28.670927206261766, "Longitude": 77.133660009873367 }, "geometry": { "type": "Point", "coordinates": [ 77.133658597422226, 28.670926359192361 ] } },
{ "type": "Feature", "properties": { "id": 27, "room_name": "Employee sitting places", "Floor": "2nd", "Latitude": 28.670928437011838, "Longitude": 77.133662257330016 }, "geometry": { "type": "Point", "coordinates": [ 77.133660844878875, 28.670927589942433 ] } }
]
}
