{
  "type": "FeatureCollection",
  "name": "3rd_floor_corridor",
  "features": [
    {
      "type": "Feature",
      "properties": { "id": 1, "room_name": "Employee sitting places", "Floor": "3rd", "Latitude": 28.67089504675259, "Longitude": 77.13368116739018 },
      "geometry": { "type": "Point", "coordinates": [77.13368116739018, 28.67089504675259] }
    },
    {
      "type": "Feature",
      "properties": { "id": 2, "room_name": "Employee sitting places", "Floor": "3rd", "Latitude": 28.670952239807892, "Longitude": 77.1336428889744 },
      "geometry": { "type": "Point", "coordinates": [77.1336428889744, 28.670952239807892] }
    },
    {
      "type": "Feature",
      "properties": { "id": 3, "room_name": "Employee sitting places", "Floor": "3rd", "Latitude": 28.670958840126445, "Longitude": 77.13365225283411 },
      "geometry": { "type": "Point", "coordinates": [77.13365225283411, 28.670958840126445] }
    },
    {
      "type": "Feature",
      "properties": { "id": 4, "room_name": "Employee sitting places", "Floor": "3rd", "Latitude": 28.67096552067764, "Longitude": 77.13366146400278 },
      "geometry": { "type": "Point", "coordinates": [77.13366146400278, 28.67096552067764] }
    },
    {
      "type": "Feature",
      "properties": { "id": 5, "room_name": "Employee sitting places", "Floor": "3rd", "Latitude": 28.67097149381712, "Longitude": 77.13367004135578 },
      "geometry": { "type": "Point", "coordinates": [77.13367004135578, 28.67097149381712] }
    },
    {
      "type": "Feature",
      "properties": { "id": 6, "room_name": "Employee sitting places", "Floor": "3rd", "Latitude": 28.670977362195398, "Longitude": 77.1336768266682 },
      "geometry": { "type": "Point", "coordinates": [77.1336768266682, 28.670977362195398] }
    },
    {
      "type": "Feature",
      "properties": { "id": 7, "room_name": "Employee sitting places", "Floor": "3rd", "Latitude": 28.670988090324453, "Longitude": 77.13366953704205 },
      "geometry": { "type": "Point", "coordinates": [77.13366953704205, 28.670988090324453] }
    },
    {
      "type": "Feature",
      "properties": { "id": 8, "room_name": "Employee sitting places", "Floor": "3rd", "Latitude": 28.67099298891738, "Longitude": 77.13366635160304 },
      "geometry": { "type": "Point", "coordinates": [77.13366635160304, 28.67099298891738] }
    },
    {
      "type": "Feature",
      "properties": { "id": 9, "room_name": "Employee sitting places", "Floor": "3rd", "Latitude": 28.67100234883499, "Longitude": 77.13365845073096 },
      "geometry": { "type": "Point", "coordinates": [77.13365845073096, 28.67100234883499] }
    },
    {
      "type": "Feature",
      "properties": { "id": 10, "room_name": "Employee sitting places", "Floor": "3rd", "Latitude": 28.67100572982546, "Longitude": 77.13366304941569 },
      "geometry": { "type": "Point", "coordinates": [77.13366304941569, 28.67100572982546] }
    },
    {
      "type": "Feature",
      "properties": { "id": 11, "room_name": "Employee sitting places", "Floor": "3rd", "Latitude": 28.67100877843002, "Longitude": 77.13366743178476 },
      "geometry": { "type": "Point", "coordinates": [77.13366743178476, 28.67100877843002] }
    },
    {
      "type": "Feature",
      "properties": { "id": 12, "room_name": "Employee sitting places", "Floor": "3rd", "Latitude": 28.670915396456373, "Longitude": 77.13371247489327 },
      "geometry": { "type": "Point", "coordinates": [77.13371247489327, 28.670915396456373] }
    },
    {
      "type": "Feature",
      "properties": { "id": 13, "room_name": "Employee sitting places", "Floor": "3rd", "Latitude": 28.670908485454493, "Longitude": 77.13371068923581 },
      "geometry": { "type": "Point", "coordinates": [77.13371068923581, 28.670908485454493] }
    },
    {
      "type": "Feature",
      "properties": { "id": 14, "room_name": "Employee sitting places", "Floor": "3rd", "Latitude": 28.670905188159796, "Longitude": 77.13370436636363 },
      "geometry": { "type": "Point", "coordinates": [77.13370436636363, 28.670905188159796] }
    },
    {
      "type": "Feature",
      "properties": { "id": 15, "room_name": "Employee sitting places", "Floor": "3rd", "Latitude": 28.670901059792964, "Longitude": 77.13370056454079 },
      "geometry": { "type": "Point", "coordinates": [77.13370056454079, 28.670901059792964] }
    },
    {
      "type": "Feature",
      "properties": { "id": 16, "room_name": "Employee sitting places", "Floor": "3rd", "Latitude": 28.670898429249224, "Longitude": 77.13368829270908 },
      "geometry": { "type": "Point", "coordinates": [77.13368829270908, 28.670898429249224] }
    },
    {
      "type": "Feature",
      "properties": { "id": 17, "room_name": "Employee sitting places", "Floor": "3rd", "Latitude": 28.67091042538199, "Longitude": 77.13368079755162 },
      "geometry": { "type": "Point", "coordinates": [77.13368079755162, 28.67091042538199] }
    },
    {
      "type": "Feature",
      "properties": { "id": 18, "room_name": "Employee sitting places", "Floor": "3rd", "Latitude": 28.670916529600618, "Longitude": 77.13367309717422 },
      "geometry": { "type": "Point", "coordinates": [77.13367309717422, 28.670916529600618] }
    },
    {
      "type": "Feature",
      "properties": { "id": 19, "room_name": "Employee sitting places", "Floor": "3rd", "Latitude": 28.670926956220427, "Longitude": 77.13366773687574 },
      "geometry": { "type": "Point", "coordinates": [77.13366773687574, 28.670926956220427] }
    },
    {
      "type": "Feature",
      "properties": { "id": 20, "room_name": "Employee sitting places", "Floor": "3rd", "Latitude": 28.67093274821943, "Longitude": 77.13365943793474 },
      "geometry": { "type": "Point", "coordinates": [77.13365943793474, 28.67093274821943] }
    },
    {
      "type": "Feature",
      "properties": { "id": 21, "room_name": "Employee sitting places", "Floor": "3rd", "Latitude": 28.670942277902558, "Longitude": 77.133653222216 },
      "geometry": { "type": "Point", "coordinates": [77.133653222216, 28.670942277902558] }
    },
    {
      "type": "Feature",
      "properties": { "id": 22, "room_name": "Employee sitting places", "Floor": "3rd", "Latitude": 28.670956169772065, "Longitude": 77.1336461666332 },
      "geometry": { "type": "Point", "coordinates": [77.1336461666332, 28.670956169772065] }
    },
    {
      "type": "Feature",
      "properties": { "id": 23, "room_name": "Employee sitting places", "Floor": "3rd", "Latitude": 28.67096185734261, "Longitude": 77.13364903973624 },
      "geometry": { "type": "Point", "coordinates": [77.13364903973624, 28.67096185734261] }
    },
    {
      "type": "Feature",
      "properties": { "id": 24, "room_name": "Employee sitting places", "Floor": "3rd", "Latitude": 28.67096630934828, "Longitude": 77.13365545693136 },
      "geometry": { "type": "Point", "coordinates": [77.13365545693136, 28.67096630934828] }
    },
    {
      "type": "Feature",
      "properties": { "id": 25, "room_name": "Employee sitting places", "Floor": "3rd", "Latitude": 28.670973156506612, "Longitude": 77.1336654949794 },
      "geometry": { "type": "Point", "coordinates": [77.1336654949794, 28.670973156506612] }
    },
    {
      "type": "Feature",
      "properties": { "id": 26, "room_name": "Employee sitting places", "Floor": "3rd", "Latitude": 28.670982921255106, "Longitude": 77.13367843370031 },
      "geometry": { "type": "Point", "coordinates": [77.13367843370031, 28.670982921255106] }
    },
    {
      "type": "Feature",
      "properties": { "id": 27, "room_name": "Employee sitting places", "Floor": "3rd", "Latitude": 28.670992794663256, "Longitude": 77.13367251130663 },
      "geometry": { "type": "Point", "coordinates": [77.13367251130663, 28.670992794663256] }
    },
    {
      "type": "Feature",
      "properties": { "id": 28, "room_name": "Employee sitting places", "Floor": "3rd", "Latitude": 28.67100250867437, "Longitude": 77.13366265524309 },
      "geometry": { "type": "Point", "coordinates": [77.13366265524309, 28.67100250867437] }
    },
    {
      "type": "Feature",
      "properties": { "id": 29, "room_name": "Employee sitting places", "Floor": "3rd", "Latitude": 28.67101303864092, "Longitude": 77.1336553666306 },
      "geometry": { "type": "Point", "coordinates": [77.1336553666306, 28.67101303864092] }
    },
    {
      "type": "Feature",
      "properties": { "id": 30, "room_name": "Employee sitting places", "Floor": "3rd", "Latitude": 28.67098020727865, "Longitude": 77.13368832900778 },
      "geometry": { "type": "Point", "coordinates": [77.13368832900778, 28.67098020727865] }
    },
    {
      "type": "Feature",
      "properties": { "id": 31, "room_name": "Employee sitting places", "Floor": "3rd", "Latitude": 28.670970938079183, "Longitude": 77.13369622613972 },
      "geometry": { "type": "Point", "coordinates": [77.13369622613972, 28.670970938079183] }
    },
    {
      "type": "Feature",
      "properties": { "id": 32, "room_name": "Employee sitting places", "Floor": "3rd", "Latitude": 28.670963840045413, "Longitude": 77.13370493301687 },
      "geometry": { "type": "Point", "coordinates": [77.13370493301687, 28.670963840045413] }
    },
    {
      "type": "Feature",
      "properties": { "id": 33, "room_name": "Employee sitting places", "Floor": "3rd", "Latitude": 28.670955507889435, "Longitude": 77.13371268390834 },
      "geometry": { "type": "Point", "coordinates": [77.13371268390834, 28.670955507889435] }
    }
  ]
}
